sat39765
1 39765U 14028E   20046.87181298  .00000028  00000-0  61174-4 0  9994
2 39765  82.4457  14.0191 0231757  32.7472 328.7756 12.82925407268563
